(1001)
(T1 D=1.25 CR=0.75 - ZMIN=0 - radius mill)
N10 G90
N15 G17
N20 G21
(-Attention- Property Safe Retracts is set to Clearance Height.)
(Ensure the clearance height will clear the part and or fixtures.)
(Raise the Z-axis to a safe height before starting the program.)
(When using Fusion for Personal Use, the feedrate of rapid)
(moves is reduced to match the feedrate of cutting moves,)
(which can increase machining time. Unrestricted rapid moves)
(are available with a Fusion Subscription.)
(Trace1)
N25 T1 M6
N30 S5000 M3
N35 G17 G90
N40 G0 X-261.21 Y-45
N45 Z1
N50 G1 Z0
N55 Y45
N60 X-203.336
N65 Y30.825
N70 X-246.417
N75 Y5.992
N80 X-210.144 Y5.942
N85 Y-8.171
N90 X-246.417
N95 Y-45
N100 X-261.21
N105 X-190.956
N110 Y45
N115 X-175.853
N120 Y-45
N125 X-190.956
N130 X-155.426
N135 Y45
N140 X-119.34
N145 X-118.518 Y44.994
N150 X-117.709 Y44.975
N155 X-116.912 Y44.943
N160 X-116.128 Y44.898
N165 X-115.357 Y44.841
N170 X-114.598 Y44.771
N175 X-113.851 Y44.689
N180 X-113.117 Y44.594
N185 X-112.396 Y44.486
N190 X-111.687 Y44.365
N195 X-110.99 Y44.232
N200 X-110.306 Y44.086
N205 X-109.635 Y43.927
N210 X-108.976 Y43.756
N215 X-108.329 Y43.572
N220 X-107.695 Y43.375
N225 X-107.074 Y43.166
N230 X-106.465 Y42.944
N235 X-105.868 Y42.709
N240 X-105.285 Y42.461
N245 X-104.713 Y42.201
N250 X-104.154 Y41.928
N255 X-103.608 Y41.642
N260 X-103.074 Y41.344
N265 X-102.553 Y41.033
N270 X-102.044 Y40.709
N275 X-101.548 Y40.373
N280 X-101.064 Y40.024
N285 X-100.593 Y39.662
N290 X-100.134 Y39.288
N295 X-99.688 Y38.901
N300 X-99.254 Y38.501
N305 X-98.833 Y38.09
N310 X-98.425 Y37.669
N315 X-98.032 Y37.239
N320 X-97.651 Y36.799
N325 X-97.283 Y36.35
N330 X-96.929 Y35.891
N335 X-96.589 Y35.423
N340 X-96.261 Y34.945
N345 X-95.948 Y34.458
N350 X-95.647 Y33.961
N355 X-95.36 Y33.455
N360 X-95.086 Y32.939
N365 X-94.825 Y32.413
N370 X-94.578 Y31.878
N375 X-94.344 Y31.333
N380 X-94.124 Y30.779
N385 X-93.917 Y30.215
N390 X-93.723 Y29.642
N395 X-93.543 Y29.059
N400 X-93.376 Y28.466
N405 X-93.222 Y27.864
N410 X-93.082 Y27.253
N415 X-92.955 Y26.632
N420 X-92.841 Y26.001
N425 X-92.741 Y25.361
N430 X-92.655 Y24.711
N435 X-92.581 Y24.052
N440 X-92.521 Y23.383
N445 X-92.474 Y22.705
N450 X-92.441 Y22.017
N455 X-92.421 Y21.319
N460 X-92.414 Y20.612
N465 X-92.431 Y19.707
N470 X-92.481 Y18.817
N475 X-92.564 Y17.942
N480 X-92.681 Y17.082
N485 X-92.831 Y16.237
N490 X-93.015 Y15.408
N495 X-93.231 Y14.594
N500 X-93.482 Y13.796
N505 X-93.765 Y13.012
N510 X-94.082 Y12.244
N515 X-94.433 Y11.491
N520 X-94.816 Y10.753
N525 X-95.234 Y10.03
N530 X-95.684 Y9.323
N535 X-96.168 Y8.631
N540 X-96.685 Y7.954
N545 X-96.956 Y7.623
N550 X-97.235 Y7.3
N555 X-97.523 Y6.984
N560 X-97.818 Y6.676
N565 X-98.122 Y6.375
N570 X-98.435 Y6.082
N575 X-98.755 Y5.797
N580 X-99.084 Y5.519
N585 X-99.42 Y5.248
N590 X-99.765 Y4.985
N595 X-100.119 Y4.73
N600 X-100.48 Y4.482
N605 X-100.85 Y4.242
N610 X-101.228 Y4.009
N615 X-101.614 Y3.784
N620 X-102.008 Y3.567
N625 X-102.411 Y3.357
N630 X-102.822 Y3.155
N635 X-103.241 Y2.96
N640 X-103.668 Y2.772
N645 X-104.103 Y2.593
N650 X-104.547 Y2.42
N655 X-104.999 Y2.256
N660 X-105.459 Y2.099
N665 X-105.927 Y1.949
N670 X-106.404 Y1.807
N675 X-106.889 Y1.673
N680 X-107.382 Y1.546
N685 X-107.883 Y1.427
N690 X-108.392 Y1.315
N695 X-108.91 Y1.211
N700 X-109.436 Y1.114
N705 X-108.898 Y1.032
N710 X-108.368 Y0.941
N715 X-107.845 Y0.842
N720 X-107.331 Y0.733
N725 X-106.823 Y0.615
N730 X-106.323 Y0.488
N735 X-105.831 Y0.352
N740 X-105.347 Y0.207
N745 X-104.87 Y0.053
N750 X-104.401 Y-0.11
N755 X-103.939 Y-0.282
N760 X-103.485 Y-0.463
N765 X-103.039 Y-0.653
N770 X-102.6 Y-0.852
N775 X-102.169 Y-1.06
N780 X-101.745 Y-1.277
N785 X-101.329 Y-1.503
N790 X-100.921 Y-1.738
N795 X-100.52 Y-1.982
N800 X-100.127 Y-2.235
N805 X-99.742 Y-2.497
N810 X-99.364 Y-2.768
N815 X-98.994 Y-3.048
N820 X-98.631 Y-3.337
N825 X-98.276 Y-3.635
N830 X-97.928 Y-3.942
N835 X-97.589 Y-4.258
N840 X-97.257 Y-4.583
N845 X-96.932 Y-4.917
N850 X-96.615 Y-5.26
N855 X-96.306 Y-5.612
N860 X-96.004 Y-5.973
N865 X-95.711 Y-6.341
N870 X-95.427 Y-6.715
N875 X-95.152 Y-7.093
N880 X-94.887 Y-7.477
N885 X-94.631 Y-7.865
N890 X-94.384 Y-8.259
N895 X-94.147 Y-8.658
N900 X-93.919 Y-9.062
N905 X-93.7 Y-9.472
N910 X-93.491 Y-9.886
N915 X-93.291 Y-10.306
N920 X-93.1 Y-10.73
N925 X-92.918 Y-11.16
N930 X-92.746 Y-11.595
N935 X-92.583 Y-12.035
N940 X-92.429 Y-12.48
N945 X-92.285 Y-12.931
N950 X-92.15 Y-13.386
N955 X-92.025 Y-13.847
N960 X-91.908 Y-14.313
N965 X-91.801 Y-14.783
N970 X-91.703 Y-15.259
N975 X-91.615 Y-15.741
N980 X-91.536 Y-16.227
N985 X-91.466 Y-16.719
N990 X-91.406 Y-17.215
N995 X-91.354 Y-17.717
N1000 X-91.312 Y-18.224
N1005 X-91.28 Y-18.736
N1010 X-91.257 Y-19.253
N1015 X-91.243 Y-19.775
N1020 X-91.238 Y-20.303
N1025 Y-20.488
N1030 X-91.245 Y-21.192
N1035 X-91.266 Y-21.886
N1040 X-91.301 Y-22.571
N1045 X-91.35 Y-23.246
N1050 X-91.413 Y-23.913
N1055 X-91.49 Y-24.57
N1060 X-91.582 Y-25.217
N1065 X-91.687 Y-25.856
N1070 X-91.806 Y-26.485
N1075 X-91.939 Y-27.105
N1080 X-92.086 Y-27.716
N1085 X-92.248 Y-28.318
N1090 X-92.423 Y-28.91
N1095 X-92.612 Y-29.493
N1100 X-92.816 Y-30.067
N1105 X-93.033 Y-30.632
N1110 X-93.264 Y-31.187
N1115 X-93.51 Y-31.733
N1120 X-93.769 Y-32.27
N1125 X-94.043 Y-32.798
N1130 X-94.33 Y-33.316
N1135 X-94.632 Y-33.825
N1140 X-94.947 Y-34.325
N1145 X-95.277 Y-34.816
N1150 X-95.62 Y-35.297
N1155 X-95.978 Y-35.769
N1160 X-96.35 Y-36.232
N1165 X-96.735 Y-36.686
N1170 X-97.135 Y-37.13
N1175 X-97.549 Y-37.565
N1180 X-97.976 Y-37.991
N1185 X-98.418 Y-38.408
N1190 X-98.872 Y-38.813
N1195 X-99.337 Y-39.206
N1200 X-99.813 Y-39.586
N1205 X-100.299 Y-39.953
N1210 X-100.796 Y-40.307
N1215 X-101.304 Y-40.648
N1220 X-101.823 Y-40.977
N1225 X-102.353 Y-41.292
N1230 X-102.893 Y-41.595
N1235 X-103.444 Y-41.884
N1240 X-104.006 Y-42.161
N1245 X-104.578 Y-42.425
N1250 X-105.161 Y-42.676
N1255 X-105.755 Y-42.914
N1260 X-106.36 Y-43.139
N1265 X-106.976 Y-43.352
N1270 X-107.602 Y-43.551
N1275 X-108.239 Y-43.738
N1280 X-108.887 Y-43.912
N1285 X-109.545 Y-44.073
N1290 X-110.215 Y-44.221
N1295 X-110.895 Y-44.356
N1300 X-111.586 Y-44.479
N1305 X-112.287 Y-44.588
N1310 X-113 Y-44.685
N1315 X-113.723 Y-44.768
N1320 X-114.457 Y-44.839
N1325 X-115.201 Y-44.897
N1330 X-115.957 Y-44.942
N1335 X-116.723 Y-44.974
N1340 X-117.5 Y-44.994
N1345 X-118.287 Y-45
N1350 X-155.426
N1355 X-140.633 Y8.109
N1360 X-119.897
N1365 X-119.142 Y8.12
N1370 X-118.41 Y8.156
N1375 X-117.701 Y8.214
N1380 X-117.015 Y8.296
N1385 X-116.351 Y8.402
N1390 X-115.71 Y8.531
N1395 X-115.092 Y8.683
N1400 X-114.496 Y8.859
N1405 X-113.923 Y9.059
N1410 X-113.373 Y9.281
N1415 X-112.846 Y9.528
N1420 X-112.341 Y9.797
N1425 X-111.86 Y10.09
N1430 X-111.4 Y10.407
N1435 X-110.964 Y10.747
N1440 X-110.55 Y11.111
N1445 X-110.16 Y11.496
N1450 X-109.796 Y11.901
N1455 X-109.456 Y12.327
N1460 X-109.142 Y12.772
N1465 X-108.853 Y13.238
N1470 X-108.589 Y13.724
N1475 X-108.35 Y14.229
N1480 X-108.136 Y14.755
N1485 X-107.948 Y15.301
N1490 X-107.784 Y15.867
N1495 X-107.646 Y16.453
N1500 X-107.533 Y17.059
N1505 X-107.445 Y17.685
N1510 X-107.382 Y18.331
N1515 X-107.344 Y18.997
N1520 X-107.331 Y19.684
N1525 X-107.345 Y20.369
N1530 X-107.385 Y21.034
N1535 X-107.451 Y21.678
N1540 X-107.544 Y22.301
N1545 X-107.664 Y22.903
N1550 X-107.81 Y23.483
N1555 X-107.983 Y24.043
N1560 X-108.183 Y24.581
N1565 X-108.409 Y25.099
N1570 X-108.661 Y25.595
N1575 X-108.941 Y26.071
N1580 X-109.246 Y26.525
N1585 X-109.579 Y26.959
N1590 X-109.938 Y27.371
N1595 X-110.324 Y27.762
N1600 X-110.736 Y28.133
N1605 X-111.174 Y28.481
N1610 X-111.637 Y28.807
N1615 X-112.126 Y29.111
N1620 X-112.639 Y29.392
N1625 X-113.178 Y29.651
N1630 X-113.742 Y29.887
N1635 X-114.331 Y30.1
N1640 X-114.945 Y30.291
N1645 X-115.584 Y30.46
N1650 X-116.249 Y30.606
N1655 X-116.938 Y30.73
N1660 X-117.653 Y30.831
N1665 X-118.393 Y30.91
N1670 X-119.158 Y30.966
N1675 X-119.948 Y31
N1680 X-120.763 Y31.011
N1685 X-140.633
N1690 Y8.109
N1695 Y-30.949
N1700 X-121.444
N1705 X-120.953 Y-30.946
N1710 X-120.47 Y-30.936
N1715 X-119.996 Y-30.92
N1720 X-119.53 Y-30.897
N1725 X-119.072 Y-30.868
N1730 X-118.622 Y-30.833
N1735 X-118.181 Y-30.791
N1740 X-117.748 Y-30.742
N1745 X-117.323 Y-30.687
N1750 X-116.906 Y-30.626
N1755 X-116.498 Y-30.558
N1760 X-116.098 Y-30.483
N1765 X-115.707 Y-30.403
N1770 X-115.323 Y-30.315
N1775 X-114.948 Y-30.222
N1780 X-114.581 Y-30.121
N1785 X-114.223 Y-30.014
N1790 X-113.873 Y-29.901
N1795 X-113.531 Y-29.782
N1800 X-113.197 Y-29.656
N1805 X-112.871 Y-29.523
N1810 X-112.554 Y-29.384
N1815 X-112.245 Y-29.238
N1820 X-111.945 Y-29.086
N1825 X-111.653 Y-28.928
N1830 X-111.369 Y-28.763
N1835 X-111.093 Y-28.592
N1840 X-110.825 Y-28.414
N1845 X-110.566 Y-28.229
N1850 X-110.315 Y-28.039
N1855 X-110.073 Y-27.841
N1860 X-109.838 Y-27.638
N1865 X-109.392 Y-27.214
N1870 X-108.975 Y-26.772
N1875 X-108.587 Y-26.312
N1880 X-108.227 Y-25.833
N1885 X-107.896 Y-25.335
N1890 X-107.594 Y-24.819
N1895 X-107.321 Y-24.284
N1900 X-107.076 Y-23.73
N1905 X-106.86 Y-23.158
N1910 X-106.673 Y-22.567
N1915 X-106.515 Y-21.958
N1920 X-106.386 Y-21.33
N1925 X-106.285 Y-20.683
N1930 X-106.213 Y-20.018
N1935 X-106.17 Y-19.334
N1940 X-106.155 Y-18.631
N1945 Y-18.446
N1950 X-106.169 Y-17.72
N1955 X-106.208 Y-17.014
N1960 X-106.274 Y-16.328
N1965 X-106.366 Y-15.66
N1970 X-106.485 Y-15.012
N1975 X-106.63 Y-14.384
N1980 X-106.801 Y-13.774
N1985 X-106.999 Y-13.184
N1990 X-107.223 Y-12.614
N1995 X-107.473 Y-12.062
N2000 X-107.75 Y-11.531
N2005 X-108.053 Y-11.018
N2010 X-108.382 Y-10.525
N2015 X-108.738 Y-10.051
N2020 X-109.12 Y-9.596
N2025 X-109.529 Y-9.161
N2030 X-109.965 Y-8.749
N2035 X-110.429 Y-8.363
N2040 X-110.921 Y-8.004
N2045 X-111.442 Y-7.672
N2050 X-111.991 Y-7.366
N2055 X-112.568 Y-7.086
N2060 X-113.174 Y-6.834
N2065 X-113.808 Y-6.608
N2070 X-114.47 Y-6.408
N2075 X-115.16 Y-6.235
N2080 X-115.879 Y-6.089
N2085 X-116.626 Y-5.969
N2090 X-117.401 Y-5.876
N2095 X-118.205 Y-5.81
N2100 X-119.037 Y-5.77
N2105 X-119.897 Y-5.757
N2110 X-140.633
N2115 Y-30.949
N2120 X-75.061 Y-18.738
N2125 X-75.202 Y-17.579
N2130 X-75.313 Y-16.401
N2135 X-75.391 Y-15.204
N2140 X-75.438 Y-13.987
N2145 X-75.454 Y-12.751
N2150 Y12.751
N2155 X-75.438 Y13.994
N2160 X-75.391 Y15.218
N2165 X-75.313 Y16.421
N2170 X-75.202 Y17.604
N2175 X-75.061 Y18.767
N2180 X-74.888 Y19.91
N2185 X-74.684 Y21.033
N2190 X-74.448 Y22.136
N2195 X-74.181 Y23.219
N2200 X-73.882 Y24.282
N2205 X-73.552 Y25.325
N2210 X-73.191 Y26.347
N2215 X-72.798 Y27.35
N2220 X-72.373 Y28.333
N2225 X-71.918 Y29.295
N2230 X-71.43 Y30.237
N2235 X-70.915 Y31.157
N2240 X-70.374 Y32.05
N2245 X-69.809 Y32.917
N2250 X-69.218 Y33.758
N2255 X-68.602 Y34.573
N2260 X-67.96 Y35.361
N2265 X-67.294 Y36.124
N2270 X-66.603 Y36.86
N2275 X-65.886 Y37.571
N2280 X-65.144 Y38.255
N2285 X-64.377 Y38.913
N2290 X-63.585 Y39.545
N2295 X-62.768 Y40.151
N2300 X-61.925 Y40.731
N2305 X-61.058 Y41.285
N2310 X-60.165 Y41.812
N2315 X-59.25 Y42.311
N2320 X-58.316 Y42.777
N2325 X-57.362 Y43.211
N2330 X-56.389 Y43.613
N2335 X-55.397 Y43.983
N2340 X-54.385 Y44.321
N2345 X-53.354 Y44.626
N2350 X-52.304 Y44.899
N2355 X-51.234 Y45.141
N2360 X-50.145 Y45.35
N2365 X-49.037 Y45.527
N2370 X-47.909 Y45.671
N2375 X-46.762 Y45.784
N2380 X-45.596 Y45.864
N2385 X-44.41 Y45.912
N2390 X-43.205 Y45.929
N2395 X-42 Y45.912
N2400 X-40.814 Y45.864
N2405 X-39.648 Y45.784
N2410 X-38.501 Y45.671
N2415 X-37.373 Y45.527
N2420 X-36.265 Y45.35
N2425 X-35.176 Y45.141
N2430 X-34.106 Y44.899
N2435 X-33.056 Y44.626
N2440 X-32.025 Y44.321
N2445 X-31.013 Y43.983
N2450 X-30.021 Y43.613
N2455 X-29.048 Y43.211
N2460 X-28.094 Y42.777
N2465 X-27.16 Y42.311
N2470 X-26.245 Y41.812
N2475 X-25.352 Y41.285
N2480 X-24.485 Y40.731
N2485 X-23.642 Y40.151
N2490 X-22.825 Y39.545
N2495 X-22.033 Y38.913
N2500 X-21.266 Y38.255
N2505 X-20.524 Y37.571
N2510 X-19.807 Y36.86
N2515 X-19.116 Y36.124
N2520 X-18.449 Y35.361
N2525 X-17.808 Y34.573
N2530 X-17.192 Y33.758
N2535 X-16.601 Y32.917
N2540 X-16.035 Y32.05
N2545 X-15.495 Y31.157
N2550 X-14.979 Y30.237
N2555 X-14.492 Y29.295
N2560 X-14.036 Y28.333
N2565 X-13.612 Y27.35
N2570 X-13.219 Y26.347
N2575 X-12.858 Y25.325
N2580 X-12.528 Y24.282
N2585 X-12.229 Y23.219
N2590 X-11.962 Y22.136
N2595 X-11.726 Y21.033
N2600 X-11.522 Y19.91
N2605 X-11.349 Y18.767
N2610 X-11.207 Y17.604
N2615 X-11.097 Y16.421
N2620 X-11.019 Y15.218
N2625 X-10.972 Y13.994
N2630 X-10.956 Y12.751
N2635 Y-12.751
N2640 X-10.972 Y-13.987
N2645 X-11.019 Y-15.204
N2650 X-11.097 Y-16.401
N2655 X-11.207 Y-17.579
N2660 X-11.349 Y-18.738
N2665 X-11.522 Y-19.877
N2670 X-11.726 Y-20.997
N2675 X-11.962 Y-22.098
N2680 X-12.229 Y-23.179
N2685 X-12.528 Y-24.241
N2690 X-12.858 Y-25.284
N2695 X-13.219 Y-26.307
N2700 X-13.612 Y-27.311
N2705 X-14.036 Y-28.295
N2710 X-14.492 Y-29.26
N2715 X-14.979 Y-30.206
N2720 X-15.495 Y-31.129
N2725 X-16.035 Y-32.026
N2730 X-16.601 Y-32.896
N2735 X-17.192 Y-33.74
N2740 X-17.808 Y-34.558
N2745 X-18.449 Y-35.349
N2750 X-19.116 Y-36.114
N2755 X-19.807 Y-36.853
N2760 X-20.524 Y-37.565
N2765 X-21.266 Y-38.251
N2770 X-22.033 Y-38.91
N2775 X-22.825 Y-39.543
N2780 X-23.642 Y-40.15
N2785 X-24.485 Y-40.73
N2790 X-25.352 Y-41.285
N2795 X-26.245 Y-41.812
N2800 X-27.16 Y-42.311
N2805 X-28.094 Y-42.777
N2810 X-29.048 Y-43.211
N2815 X-30.021 Y-43.613
N2820 X-31.013 Y-43.983
N2825 X-32.025 Y-44.321
N2830 X-33.056 Y-44.626
N2835 X-34.106 Y-44.899
N2840 X-35.176 Y-45.141
N2845 X-36.265 Y-45.35
N2850 X-37.373 Y-45.527
N2855 X-38.501 Y-45.671
N2860 X-39.648 Y-45.784
N2865 X-40.814 Y-45.864
N2870 X-42 Y-45.912
N2875 X-43.205 Y-45.929
N2880 X-44.41 Y-45.912
N2885 X-45.596 Y-45.864
N2890 X-46.762 Y-45.784
N2895 X-47.909 Y-45.671
N2900 X-49.037 Y-45.527
N2905 X-50.145 Y-45.35
N2910 X-51.234 Y-45.141
N2915 X-52.304 Y-44.899
N2920 X-53.354 Y-44.626
N2925 X-54.385 Y-44.321
N2930 X-55.397 Y-43.983
N2935 X-56.389 Y-43.613
N2940 X-57.362 Y-43.211
N2945 X-58.316 Y-42.777
N2950 X-59.25 Y-42.311
N2955 X-60.165 Y-41.812
N2960 X-61.058 Y-41.285
N2965 X-61.925 Y-40.73
N2970 X-62.768 Y-40.15
N2975 X-63.585 Y-39.543
N2980 X-64.377 Y-38.91
N2985 X-65.144 Y-38.251
N2990 X-65.886 Y-37.565
N2995 X-66.603 Y-36.853
N3000 X-67.294 Y-36.114
N3005 X-67.96 Y-35.349
N3010 X-68.602 Y-34.558
N3015 X-69.218 Y-33.74
N3020 X-69.809 Y-32.896
N3025 X-70.374 Y-32.026
N3030 X-70.915 Y-31.129
N3035 X-71.43 Y-30.206
N3040 X-71.918 Y-29.26
N3045 X-72.373 Y-28.295
N3050 X-72.798 Y-27.311
N3055 X-73.191 Y-26.307
N3060 X-73.552 Y-25.284
N3065 X-73.882 Y-24.241
N3070 X-74.181 Y-23.179
N3075 X-74.448 Y-22.098
N3080 X-74.684 Y-20.997
N3085 X-74.888 Y-19.877
N3090 X-75.061 Y-18.738
N3095 X-59.965 Y-16.603
N3100 X-59.9 Y-17.066
N3105 X-59.825 Y-17.523
N3110 X-59.741 Y-17.974
N3115 X-59.648 Y-18.418
N3120 X-59.546 Y-18.855
N3125 X-59.434 Y-19.287
N3130 X-59.313 Y-19.712
N3135 X-59.183 Y-20.13
N3140 X-59.043 Y-20.542
N3145 X-58.894 Y-20.948
N3150 X-58.736 Y-21.348
N3155 X-58.569 Y-21.741
N3160 X-58.393 Y-22.128
N3165 X-58.207 Y-22.509
N3170 X-58.012 Y-22.883
N3175 X-57.808 Y-23.251
N3180 X-57.594 Y-23.612
N3185 X-57.372 Y-23.967
N3190 X-57.14 Y-24.316
N3195 X-56.898 Y-24.659
N3200 X-56.648 Y-24.995
N3205 X-56.388 Y-25.325
N3210 X-56.119 Y-25.648
N3215 X-55.841 Y-25.965
N3220 X-55.554 Y-26.276
N3225 X-55.259 Y-26.579
N3230 X-54.958 Y-26.872
N3235 X-54.651 Y-27.156
N3240 X-54.338 Y-27.43
N3245 X-54.02 Y-27.695
N3250 X-53.696 Y-27.95
N3255 X-53.365 Y-28.196
N3260 X-53.029 Y-28.433
N3265 X-52.687 Y-28.659
N3270 X-52.34 Y-28.877
N3275 X-51.986 Y-29.085
N3280 X-51.626 Y-29.283
N3285 X-51.261 Y-29.472
N3290 X-50.89 Y-29.652
N3295 X-50.513 Y-29.822
N3300 X-50.13 Y-29.982
N3305 X-49.741 Y-30.133
N3310 X-49.346 Y-30.274
N3315 X-48.946 Y-30.406
N3320 X-48.539 Y-30.529
N3325 X-48.127 Y-30.642
N3330 X-47.709 Y-30.745
N3335 X-47.285 Y-30.839
N3340 X-46.855 Y-30.924
N3345 X-46.419 Y-30.999
N3350 X-45.978 Y-31.065
N3355 X-45.53 Y-31.121
N3360 X-45.077 Y-31.167
N3365 X-44.618 Y-31.204
N3370 X-44.153 Y-31.232
N3375 X-43.682 Y-31.25
N3380 X-43.205 Y-31.259
N3385 X-42.724 Y-31.25
N3390 X-42.25 Y-31.232
N3395 X-41.781 Y-31.204
N3400 X-41.319 Y-31.167
N3405 X-40.863 Y-31.121
N3410 X-40.412 Y-31.065
N3415 X-39.968 Y-30.999
N3420 X-39.53 Y-30.924
N3425 X-39.097 Y-30.839
N3430 X-38.671 Y-30.745
N3435 X-38.251 Y-30.642
N3440 X-37.837 Y-30.529
N3445 X-37.429 Y-30.406
N3450 X-37.027 Y-30.274
N3455 X-36.631 Y-30.133
N3460 X-36.241 Y-29.982
N3465 X-35.858 Y-29.822
N3470 X-35.48 Y-29.652
N3475 X-35.108 Y-29.472
N3480 X-34.742 Y-29.283
N3485 X-34.383 Y-29.085
N3490 X-34.029 Y-28.877
N3495 X-33.681 Y-28.659
N3500 X-33.34 Y-28.433
N3505 X-33.004 Y-28.196
N3510 X-32.675 Y-27.95
N3515 X-32.352 Y-27.695
N3520 X-32.034 Y-27.43
N3525 X-31.723 Y-27.156
N3530 X-31.418 Y-26.872
N3535 X-31.118 Y-26.579
N3540 X-30.825 Y-26.276
N3545 X-30.54 Y-25.965
N3550 X-30.263 Y-25.648
N3555 X-29.996 Y-25.325
N3560 X-29.737 Y-24.995
N3565 X-29.488 Y-24.659
N3570 X-29.248 Y-24.316
N3575 X-29.016 Y-23.967
N3580 X-28.794 Y-23.612
N3585 X-28.581 Y-23.251
N3590 X-28.377 Y-22.883
N3595 X-28.182 Y-22.509
N3600 X-27.996 Y-22.128
N3605 X-27.82 Y-21.741
N3610 X-27.652 Y-21.348
N3615 X-27.493 Y-20.948
N3620 X-27.344 Y-20.542
N3625 X-27.203 Y-20.13
N3630 X-27.072 Y-19.712
N3635 X-26.949 Y-19.287
N3640 X-26.836 Y-18.855
N3645 X-26.732 Y-18.418
N3650 X-26.636 Y-17.974
N3655 X-26.55 Y-17.523
N3660 X-26.473 Y-17.066
N3665 X-26.405 Y-16.603
N3670 X-26.346 Y-16.134
N3675 X-26.296 Y-15.658
N3680 X-26.256 Y-15.176
N3685 X-26.224 Y-14.688
N3690 X-26.201 Y-14.193
N3695 X-26.188 Y-13.692
N3700 X-26.183 Y-13.184
N3705 Y13.184
N3710 X-26.188 Y13.696
N3715 X-26.201 Y14.2
N3720 X-26.224 Y14.699
N3725 X-26.256 Y15.191
N3730 X-26.296 Y15.676
N3735 X-26.346 Y16.155
N3740 X-26.405 Y16.628
N3745 X-26.473 Y17.094
N3750 X-26.55 Y17.553
N3755 X-26.636 Y18.006
N3760 X-26.732 Y18.453
N3765 X-26.836 Y18.893
N3770 X-26.949 Y19.327
N3775 X-27.072 Y19.754
N3780 X-27.203 Y20.175
N3785 X-27.344 Y20.589
N3790 X-27.493 Y20.997
N3795 X-27.652 Y21.398
N3800 X-27.82 Y21.793
N3805 X-27.996 Y22.181
N3810 X-28.182 Y22.563
N3815 X-28.377 Y22.939
N3820 X-28.581 Y23.308
N3825 X-28.794 Y23.67
N3830 X-29.016 Y24.026
N3835 X-29.248 Y24.376
N3840 X-29.488 Y24.719
N3845 X-29.737 Y25.056
N3850 X-29.996 Y25.386
N3855 X-30.263 Y25.71
N3860 X-30.54 Y26.027
N3865 X-30.825 Y26.338
N3870 X-31.118 Y26.64
N3875 X-31.418 Y26.934
N3880 X-31.723 Y27.217
N3885 X-32.034 Y27.491
N3890 X-32.352 Y27.755
N3895 X-32.675 Y28.01
N3900 X-33.004 Y28.255
N3905 X-33.34 Y28.491
N3910 X-33.681 Y28.716
N3915 X-34.029 Y28.933
N3920 X-34.383 Y29.139
N3925 X-34.742 Y29.336
N3930 X-35.108 Y29.524
N3935 X-35.48 Y29.702
N3940 X-35.858 Y29.87
N3945 X-36.241 Y30.028
N3950 X-36.631 Y30.177
N3955 X-37.027 Y30.317
N3960 X-37.429 Y30.447
N3965 X-37.837 Y30.567
N3970 X-38.251 Y30.677
N3975 X-38.671 Y30.778
N3980 X-39.097 Y30.869
N3985 X-39.53 Y30.951
N3990 X-39.968 Y31.023
N3995 X-40.412 Y31.086
N4000 X-40.863 Y31.139
N4005 X-41.319 Y31.182
N4010 X-41.781 Y31.215
N4015 X-42.25 Y31.239
N4020 X-42.724 Y31.254
N4025 X-43.205 Y31.259
N4030 X-43.682 Y31.254
N4035 X-44.153 Y31.239
N4040 X-44.618 Y31.215
N4045 X-45.077 Y31.182
N4050 X-45.53 Y31.139
N4055 X-45.978 Y31.086
N4060 X-46.419 Y31.023
N4065 X-46.855 Y30.951
N4070 X-47.285 Y30.869
N4075 X-47.709 Y30.778
N4080 X-48.127 Y30.677
N4085 X-48.539 Y30.567
N4090 X-48.946 Y30.447
N4095 X-49.346 Y30.317
N4100 X-49.741 Y30.177
N4105 X-50.13 Y30.028
N4110 X-50.513 Y29.87
N4115 X-50.89 Y29.702
N4120 X-51.261 Y29.524
N4125 X-51.626 Y29.336
N4130 X-51.986 Y29.139
N4135 X-52.34 Y28.933
N4140 X-52.687 Y28.716
N4145 X-53.029 Y28.491
N4150 X-53.365 Y28.255
N4155 X-53.696 Y28.01
N4160 X-54.02 Y27.755
N4165 X-54.338 Y27.491
N4170 X-54.651 Y27.217
N4175 X-54.958 Y26.934
N4180 X-55.259 Y26.64
N4185 X-55.554 Y26.338
N4190 X-55.841 Y26.027
N4195 X-56.119 Y25.71
N4200 X-56.388 Y25.386
N4205 X-56.648 Y25.056
N4210 X-56.898 Y24.719
N4215 X-57.14 Y24.376
N4220 X-57.372 Y24.026
N4225 X-57.594 Y23.67
N4230 X-57.808 Y23.308
N4235 X-58.012 Y22.939
N4240 X-58.207 Y22.563
N4245 X-58.393 Y22.181
N4250 X-58.569 Y21.793
N4255 X-58.736 Y21.398
N4260 X-58.894 Y20.997
N4265 X-59.043 Y20.589
N4270 X-59.183 Y20.175
N4275 X-59.313 Y19.754
N4280 X-59.434 Y19.327
N4285 X-59.546 Y18.893
N4290 X-59.648 Y18.453
N4295 X-59.741 Y18.006
N4300 X-59.825 Y17.553
N4305 X-59.9 Y17.094
N4310 X-59.965 Y16.628
N4315 X-60.022 Y16.155
N4320 X-60.069 Y15.676
N4325 X-60.106 Y15.191
N4330 X-60.135 Y14.699
N4335 X-60.154 Y14.2
N4340 X-60.164 Y13.696
N4345 X-60.165 Y13.184
N4350 Y-13.184
N4355 X-60.164 Y-13.692
N4360 X-60.154 Y-14.193
N4365 X-60.135 Y-14.688
N4370 X-60.106 Y-15.176
N4375 X-60.069 Y-15.658
N4380 X-60.022 Y-16.134
N4385 X-59.965 Y-16.603
N4390 X-1.052 Y-45
N4395 X51.685 Y-44.938
N4400 Y-59.113
N4405 X-1.052
N4410 Y-45
N4415 X61.731 Y-17.727
N4420 X61.652 Y-16.582
N4425 X61.605 Y-15.419
N4430 X61.589 Y-14.237
N4435 Y12.318
N4440 X61.604 Y13.576
N4445 X61.652 Y14.815
N4450 X61.73 Y16.033
N4455 X61.84 Y17.231
N4460 X61.982 Y18.408
N4465 X62.154 Y19.566
N4470 X62.359 Y20.702
N4475 X62.595 Y21.819
N4480 X62.862 Y22.915
N4485 X63.16 Y23.991
N4490 X63.49 Y25.047
N4495 X63.852 Y26.082
N4500 X64.245 Y27.097
N4505 X64.669 Y28.092
N4510 X65.125 Y29.066
N4515 X65.612 Y30.021
N4520 X66.128 Y30.951
N4525 X66.668 Y31.856
N4530 X67.233 Y32.734
N4535 X67.823 Y33.586
N4540 X68.438 Y34.411
N4545 X69.078 Y35.21
N4550 X69.743 Y35.983
N4555 X70.432 Y36.729
N4560 X71.147 Y37.449
N4565 X71.886 Y38.142
N4570 X72.651 Y38.81
N4575 X73.44 Y39.45
N4580 X74.255 Y40.065
N4585 X75.094 Y40.653
N4590 X75.958 Y41.215
N4595 X76.847 Y41.75
N4600 X77.758 Y42.256
N4605 X78.688 Y42.73
N4610 X79.637 Y43.17
N4615 X80.605 Y43.578
N4620 X81.592 Y43.954
N4625 X82.599 Y44.296
N4630 X83.624 Y44.606
N4635 X84.669 Y44.884
N4640 X85.733 Y45.129
N4645 X86.816 Y45.341
N4650 X87.918 Y45.521
N4655 X89.039 Y45.667
N4660 X90.179 Y45.782
N4665 X91.338 Y45.863
N4670 X92.516 Y45.912
N4675 X93.714 Y45.929
N4680 X94.707 Y45.915
N4685 X95.688 Y45.876
N4690 X96.659 Y45.811
N4695 X97.619 Y45.72
N4700 X98.568 Y45.602
N4705 X99.507 Y45.458
N4710 X100.434 Y45.289
N4715 X101.351 Y45.093
N4720 X102.256 Y44.871
N4725 X103.151 Y44.623
N4730 X104.035 Y44.349
N4735 X104.908 Y44.048
N4740 X105.77 Y43.722
N4745 X106.621 Y43.369
N4750 X107.461 Y42.991
N4755 X108.291 Y42.586
N4760 X109.107 Y42.158
N4765 X109.906 Y41.709
N4770 X110.689 Y41.239
N4775 X111.455 Y40.748
N4780 X112.206 Y40.237
N4785 X112.939 Y39.705
N4790 X113.656 Y39.152
N4795 X114.357 Y38.578
N4800 X115.041 Y37.984
N4805 X115.709 Y37.368
N4810 X116.36 Y36.732
N4815 X116.995 Y36.075
N4820 X117.614 Y35.397
N4825 X118.216 Y34.699
N4830 X118.802 Y33.979
N4835 X119.371 Y33.239
N4840 X119.92 Y32.481
N4845 X120.448 Y31.706
N4850 X120.952 Y30.916
N4855 X121.435 Y30.11
N4860 X121.894 Y29.287
N4865 X122.332 Y28.449
N4870 X122.746 Y27.595
N4875 X123.139 Y26.725
N4880 X123.509 Y25.838
N4885 X123.856 Y24.936
N4890 X124.181 Y24.018
N4895 X124.483 Y23.084
N4900 X124.763 Y22.134
N4905 X125.02 Y21.168
N4910 X125.255 Y20.186
N4915 X125.468 Y19.188
N4920 X109.498
N4925 X109.293 Y19.89
N4930 X109.065 Y20.571
N4935 X108.813 Y21.232
N4940 X108.539 Y21.871
N4945 X108.241 Y22.491
N4950 X107.92 Y23.09
N4955 X107.575 Y23.668
N4960 X107.208 Y24.225
N4965 X106.817 Y24.763
N4970 X106.403 Y25.279
N4975 X105.966 Y25.775
N4980 X105.506 Y26.251
N4985 X105.022 Y26.706
N4990 X104.515 Y27.14
N4995 X103.985 Y27.554
N5000 X103.432 Y27.947
N5005 X102.864 Y28.318
N5010 X102.292 Y28.665
N5015 X101.714 Y28.988
N5020 X101.13 Y29.288
N5025 X100.541 Y29.563
N5030 X99.947 Y29.814
N5035 X99.348 Y30.042
N5040 X98.743 Y30.245
N5045 X98.133 Y30.424
N5050 X97.518 Y30.58
N5055 X96.897 Y30.712
N5060 X96.271 Y30.819
N5065 X95.64 Y30.903
N5070 X95.003 Y30.963
N5075 X94.361 Y30.999
N5080 X93.714 Y31.011
N5085 X93.237 Y31.006
N5090 X92.767 Y30.991
N5095 X92.302 Y30.966
N5100 X91.843 Y30.931
N5105 X91.39 Y30.886
N5110 X90.943 Y30.83
N5115 X90.503 Y30.765
N5120 X90.068 Y30.69
N5125 X89.639 Y30.605
N5130 X89.216 Y30.509
N5135 X88.799 Y30.404
N5140 X88.388 Y30.288
N5145 X87.983 Y30.163
N5150 X87.584 Y30.028
N5155 X87.191 Y29.882
N5160 X86.804 Y29.727
N5165 X86.424 Y29.561
N5170 X86.049 Y29.385
N5175 X85.679 Y29.2
N5180 X85.316 Y29.004
N5185 X84.96 Y28.798
N5190 X84.608 Y28.583
N5195 X84.263 Y28.357
N5200 X83.924 Y28.121
N5205 X83.591 Y27.875
N5210 X83.264 Y27.619
N5215 X82.943 Y27.354
N5220 X82.628 Y27.078
N5225 X82.319 Y26.792
N5230 X82.016 Y26.496
N5235 X81.718 Y26.19
N5240 X81.427 Y25.874
N5245 X81.143 Y25.549
N5250 X80.869 Y25.218
N5255 X80.604 Y24.881
N5260 X80.347 Y24.538
N5265 X80.1 Y24.188
N5270 X79.862 Y23.831
N5275 X79.633 Y23.469
N5280 X79.413 Y23.1
N5285 X79.203 Y22.724
N5290 X79.001 Y22.342
N5295 X78.809 Y21.954
N5300 X78.626 Y21.559
N5305 X78.452 Y21.158
N5310 X78.287 Y20.75
N5315 X78.131 Y20.336
N5320 X77.984 Y19.916
N5325 X77.846 Y19.489
N5330 X77.718 Y19.056
N5335 X77.599 Y18.616
N5340 X77.488 Y18.17
N5345 X77.387 Y17.718
N5350 X77.295 Y17.259
N5355 X77.212 Y16.794
N5360 X77.139 Y16.322
N5365 X77.074 Y15.844
N5370 X77.019 Y15.359
N5375 X76.972 Y14.868
N5380 X76.935 Y14.371
N5385 X76.907 Y13.867
N5390 X76.888 Y13.357
N5395 X76.878 Y12.841
N5400 Y12.318
N5405 Y-14.237
N5410 Y-14.71
N5415 X76.889 Y-15.176
N5420 X76.908 Y-15.637
N5425 X76.937 Y-16.093
N5430 X76.975 Y-16.542
N5435 X77.023 Y-16.985
N5440 X77.08 Y-17.422
N5445 X77.146 Y-17.854
N5450 X77.222 Y-18.279
N5455 X77.307 Y-18.699
N5460 X77.402 Y-19.112
N5465 X77.506 Y-19.52
N5470 X77.619 Y-19.922
N5475 X77.742 Y-20.318
N5480 X77.874 Y-20.708
N5485 X78.015 Y-21.092
N5490 X78.166 Y-21.47
N5495 X78.326 Y-21.842
N5500 X78.495 Y-22.208
N5505 X78.674 Y-22.569
N5510 X78.862 Y-22.923
N5515 X79.06 Y-23.272
N5520 X79.267 Y-23.614
N5525 X79.483 Y-23.951
N5530 X79.709 Y-24.281
N5535 X79.944 Y-24.606
N5540 X80.188 Y-24.925
N5545 X80.442 Y-25.238
N5550 X80.705 Y-25.545
N5555 X80.978 Y-25.846
N5560 X81.26 Y-26.141
N5565 X81.551 Y-26.431
N5570 X81.85 Y-26.712
N5575 X82.155 Y-26.985
N5580 X82.466 Y-27.249
N5585 X82.783 Y-27.504
N5590 X83.105 Y-27.75
N5595 X83.434 Y-27.987
N5600 X83.769 Y-28.215
N5605 X84.11 Y-28.434
N5610 X84.457 Y-28.645
N5615 X84.81 Y-28.846
N5620 X85.168 Y-29.038
N5625 X85.533 Y-29.222
N5630 X85.904 Y-29.396
N5635 X86.281 Y-29.562
N5640 X86.663 Y-29.718
N5645 X87.052 Y-29.866
N5650 X87.447 Y-30.005
N5655 X87.848 Y-30.134
N5660 X88.254 Y-30.255
N5665 X88.667 Y-30.367
N5670 X89.085 Y-30.47
N5675 X89.51 Y-30.564
N5680 X89.941 Y-30.649
N5685 X90.377 Y-30.725
N5690 X90.82 Y-30.792
N5695 X91.268 Y-30.85
N5700 X91.723 Y-30.899
N5705 X92.183 Y-30.939
N5710 X92.65 Y-30.971
N5715 X93.122 Y-30.993
N5720 X93.601 Y-31.007
N5725 X94.085 Y-31.011
N5730 X94.562 Y-31.003
N5735 X95.033 Y-30.985
N5740 X95.497 Y-30.957
N5745 X95.956 Y-30.921
N5750 X96.409 Y-30.875
N5755 X96.856 Y-30.819
N5760 X97.297 Y-30.754
N5765 X97.731 Y-30.68
N5770 X98.16 Y-30.597
N5775 X98.583 Y-30.504
N5780 X99 Y-30.402
N5785 X99.411 Y-30.29
N5790 X99.816 Y-30.169
N5795 X100.215 Y-30.039
N5800 X100.608 Y-29.899
N5805 X100.995 Y-29.75
N5810 X101.376 Y-29.591
N5815 X101.751 Y-29.424
N5820 X102.12 Y-29.246
N5825 X102.483 Y-29.06
N5830 X102.84 Y-28.864
N5835 X103.191 Y-28.659
N5840 X103.536 Y-28.444
N5845 X103.875 Y-28.22
N5850 X104.208 Y-27.986
N5855 X104.535 Y-27.744
N5860 X104.856 Y-27.491
N5865 X105.171 Y-27.23
N5870 X105.48 Y-26.959
N5875 X105.784 Y-26.679
N5880 X106.081 Y-26.389
N5885 X106.372 Y-26.09
N5890 X106.656 Y-25.783
N5895 X106.93 Y-25.468
N5900 X107.196 Y-25.145
N5905 X107.453 Y-24.815
N5910 X107.701 Y-24.477
N5915 X107.939 Y-24.132
N5920 X108.169 Y-23.779
N5925 X108.39 Y-23.419
N5930 X108.601 Y-23.051
N5935 X108.804 Y-22.675
N5940 X108.998 Y-22.292
N5945 X109.182 Y-21.902
N5950 X109.358 Y-21.504
N5955 X109.524 Y-21.098
N5960 X109.682 Y-20.685
N5965 X109.831 Y-20.264
N5970 X109.97 Y-19.836
N5975 X110.101 Y-19.4
N5980 X110.222 Y-18.956
N5985 X110.335 Y-18.505
N5990 X110.439 Y-18.047
N5995 X110.533 Y-17.58
N6000 X110.619 Y-17.107
N6005 X110.695 Y-16.625
N6010 X110.763 Y-16.137
N6015 X110.821 Y-15.64
N6020 X110.871 Y-15.136
N6025 X110.911 Y-14.625
N6030 X110.943 Y-14.106
N6035 X110.965 Y-13.579
N6040 X110.979 Y-13.045
N6045 X110.983 Y-12.503
N6050 Y-9.78
N6055 X95.014
N6060 Y4.395
N6065 X126.21
N6070 Y-12.256
N6075 X126.195 Y-13.515
N6080 X126.148 Y-14.753
N6085 X126.069 Y-15.972
N6090 X125.959 Y-17.171
N6095 X125.818 Y-18.35
N6100 X125.645 Y-19.508
N6105 X125.44 Y-20.647
N6110 X125.205 Y-21.765
N6115 X124.937 Y-22.863
N6120 X124.639 Y-23.941
N6125 X124.309 Y-25
N6130 X123.947 Y-26.038
N6135 X123.554 Y-27.056
N6140 X123.13 Y-28.054
N6145 X122.674 Y-29.032
N6150 X122.187 Y-29.99
N6155 X121.672 Y-30.924
N6160 X121.132 Y-31.832
N6165 X120.567 Y-32.713
N6170 X119.978 Y-33.568
N6175 X119.364 Y-34.396
N6180 X118.726 Y-35.198
N6185 X118.062 Y-35.973
N6190 X117.374 Y-36.721
N6195 X116.662 Y-37.443
N6200 X115.925 Y-38.138
N6205 X115.163 Y-38.807
N6210 X114.376 Y-39.449
N6215 X113.565 Y-40.064
N6220 X112.729 Y-40.653
N6225 X111.869 Y-41.215
N6230 X110.983 Y-41.75
N6235 X110.076 Y-42.256
N6240 X109.149 Y-42.73
N6245 X108.202 Y-43.17
N6250 X107.235 Y-43.578
N6255 X106.248 Y-43.954
N6260 X105.241 Y-44.296
N6265 X104.215 Y-44.606
N6270 X103.169 Y-44.884
N6275 X102.103 Y-45.129
N6280 X101.017 Y-45.341
N6285 X99.911 Y-45.52
N6290 X98.786 Y-45.667
N6295 X97.64 Y-45.782
N6300 X96.475 Y-45.863
N6305 X95.29 Y-45.912
N6310 X94.085 Y-45.929
N6315 X92.88 Y-45.913
N6320 X91.693 Y-45.867
N6325 X90.525 Y-45.79
N6330 X89.375 Y-45.683
N6335 X88.244 Y-45.545
N6340 X87.132 Y-45.376
N6345 X86.038 Y-45.176
N6350 X84.963 Y-44.946
N6355 X83.907 Y-44.685
N6360 X82.869 Y-44.393
N6365 X81.849 Y-44.071
N6370 X80.849 Y-43.717
N6375 X79.867 Y-43.334
N6380 X78.903 Y-42.919
N6385 X77.959 Y-42.474
N6390 X77.032 Y-41.998
N6395 X76.128 Y-41.494
N6400 X75.25 Y-40.965
N6405 X74.397 Y-40.411
N6410 X73.57 Y-39.832
N6415 X72.768 Y-39.227
N6420 X71.993 Y-38.597
N6425 X71.242 Y-37.943
N6430 X70.518 Y-37.263
N6435 X69.818 Y-36.558
N6440 X69.145 Y-35.827
N6445 X68.497 Y-35.072
N6450 X67.875 Y-34.292
N6455 X67.279 Y-33.486
N6460 X66.708 Y-32.655
N6465 X66.163 Y-31.799
N6470 X65.643 Y-30.918
N6475 X65.152 Y-30.015
N6480 X64.693 Y-29.094
N6485 X64.265 Y-28.153
N6490 X63.869 Y-27.195
N6495 X63.505 Y-26.217
N6500 X63.173 Y-25.221
N6505 X62.872 Y-24.206
N6510 X62.602 Y-23.173
N6515 X62.365 Y-22.121
N6520 X62.159 Y-21.051
N6525 X61.985 Y-19.962
N6530 X61.842 Y-18.854
N6535 X61.731 Y-17.727
N6540 X143.6 Y-22.527
N6545 X143.568 Y-21.816
N6550 X143.548 Y-21.095
N6555 X143.542 Y-20.365
N6560 Y20.55
N6565 X143.548 Y21.292
N6570 X143.568 Y22.023
N6575 X143.601 Y22.745
N6580 X143.646 Y23.456
N6585 X143.705 Y24.158
N6590 X143.777 Y24.85
N6595 X143.862 Y25.531
N6600 X143.96 Y26.202
N6605 X144.071 Y26.864
N6610 X144.195 Y27.515
N6615 X144.332 Y28.156
N6620 X144.482 Y28.788
N6625 X144.645 Y29.409
N6630 X144.821 Y30.02
N6635 X145.011 Y30.621
N6640 X145.213 Y31.212
N6645 X145.429 Y31.793
N6650 X145.657 Y32.364
N6655 X145.899 Y32.925
N6660 X146.153 Y33.476
N6665 X146.421 Y34.017
N6670 X146.702 Y34.548
N6675 X146.995 Y35.069
N6680 X147.302 Y35.58
N6685 X147.622 Y36.081
N6690 X147.955 Y36.571
N6695 X148.301 Y37.052
N6700 X148.66 Y37.523
N6705 X149.032 Y37.984
N6710 X149.417 Y38.434
N6715 X149.816 Y38.875
N6720 X150.227 Y39.305
N6725 X150.651 Y39.724
N6730 X151.087 Y40.13
N6735 X151.535 Y40.522
N6740 X151.996 Y40.901
N6745 X152.469 Y41.267
N6750 X152.954 Y41.619
N6755 X153.451 Y41.958
N6760 X153.96 Y42.284
N6765 X154.482 Y42.597
N6770 X155.016 Y42.896
N6775 X155.562 Y43.182
N6780 X156.12 Y43.454
N6785 X156.69 Y43.714
N6790 X157.273 Y43.96
N6795 X157.868 Y44.193
N6800 X158.475 Y44.412
N6805 X159.094 Y44.618
N6810 X159.726 Y44.811
N6815 X160.369 Y44.991
N6820 X161.025 Y45.157
N6825 X161.693 Y45.31
N6830 X162.374 Y45.449
N6835 X163.066 Y45.576
N6840 X163.771 Y45.689
N6845 X164.488 Y45.788
N6850 X165.217 Y45.875
N6855 X165.959 Y45.948
N6860 X166.712 Y46.008
N6865 X167.478 Y46.054
N6870 X168.256 Y46.088
N6875 X169.046 Y46.107
N6880 X169.849 Y46.114
N6885 X170.655 Y46.108
N6890 X171.449 Y46.088
N6895 X172.23 Y46.055
N6900 X172.999 Y46.008
N6905 X173.756 Y45.949
N6910 X174.5 Y45.876
N6915 X175.232 Y45.79
N6920 X175.951 Y45.691
N6925 X176.659 Y45.578
N6930 X177.353 Y45.452
N6935 X178.035 Y45.313
N6940 X178.705 Y45.161
N6945 X179.363 Y44.996
N6950 X180.008 Y44.817
N6955 X180.641 Y44.625
N6960 X181.261 Y44.42
N6965 X181.869 Y44.201
N6970 X182.465 Y43.97
N6975 X183.048 Y43.725
N6980 X183.619 Y43.467
N6985 X184.177 Y43.195
N6990 X184.723 Y42.911
N6995 X185.257 Y42.613
N7000 X185.778 Y42.302
N7005 X186.287 Y41.977
N7010 X186.783 Y41.64
N7015 X187.267 Y41.289
N7020 X187.739 Y40.925
N7025 X188.198 Y40.548
N7030 X188.645 Y40.157
N7035 X189.079 Y39.753
N7040 X189.501 Y39.336
N7045 X189.911 Y38.908
N7050 X190.307 Y38.469
N7055 X190.69 Y38.02
N7060 X191.061 Y37.56
N7065 X191.418 Y37.091
N7070 X191.763 Y36.611
N7075 X192.094 Y36.121
N7080 X192.412 Y35.62
N7085 X192.718 Y35.11
N7090 X193.01 Y34.589
N7095 X193.29 Y34.058
N7100 X193.556 Y33.517
N7105 X193.81 Y32.966
N7110 X194.05 Y32.405
N7115 X194.277 Y31.833
N7120 X194.492 Y31.251
N7125 X194.693 Y30.659
N7130 X194.882 Y30.056
N7135 X195.057 Y29.444
N7140 X195.22 Y28.821
N7145 X195.369 Y28.188
N7150 X195.506 Y27.545
N7155 X195.629 Y26.891
N7160 X195.74 Y26.227
N7165 X195.837 Y25.553
N7170 X195.921 Y24.869
N7175 X195.993 Y24.175
N7180 X196.051 Y23.471
N7185 X196.097 Y22.756
N7190 X196.129 Y22.031
N7195 X196.149 Y21.296
N7200 X196.155 Y20.55
N7205 Y-20.365
N7210 X196.149 Y-21.106
N7215 X196.13 Y-21.838
N7220 X196.097 Y-22.559
N7225 X196.052 Y-23.271
N7230 X195.994 Y-23.972
N7235 X195.923 Y-24.664
N7240 X195.838 Y-25.345
N7245 X195.741 Y-26.017
N7250 X195.631 Y-26.678
N7255 X195.509 Y-27.329
N7260 X195.373 Y-27.971
N7265 X195.224 Y-28.602
N7270 X195.062 Y-29.223
N7275 X194.888 Y-29.834
N7280 X194.7 Y-30.435
N7285 X194.5 Y-31.027
N7290 X194.286 Y-31.608
N7295 X194.06 Y-32.179
N7300 X193.82 Y-32.74
N7305 X193.568 Y-33.291
N7310 X193.303 Y-33.832
N7315 X193.025 Y-34.362
N7320 X192.734 Y-34.883
N7325 X192.43 Y-35.394
N7330 X192.113 Y-35.895
N7335 X191.783 Y-36.386
N7340 X191.44 Y-36.867
N7345 X191.085 Y-37.337
N7350 X190.716 Y-37.798
N7355 X190.334 Y-38.249
N7360 X189.94 Y-38.689
N7365 X189.532 Y-39.12
N7370 X189.112 Y-39.539
N7375 X188.679 Y-39.944
N7380 X188.234 Y-40.336
N7385 X187.776 Y-40.715
N7390 X187.305 Y-41.081
N7395 X186.822 Y-41.434
N7400 X186.327 Y-41.773
N7405 X185.818 Y-42.098
N7410 X185.298 Y-42.411
N7415 X184.764 Y-42.71
N7420 X184.218 Y-42.996
N7425 X183.66 Y-43.269
N7430 X183.089 Y-43.528
N7435 X182.505 Y-43.774
N7440 X181.909 Y-44.007
N7445 X181.3 Y-44.226
N7450 X180.678 Y-44.432
N7455 X180.044 Y-44.625
N7460 X179.398 Y-44.805
N7465 X178.739 Y-44.971
N7470 X178.067 Y-45.124
N7475 X177.383 Y-45.264
N7480 X176.686 Y-45.39
N7485 X175.977 Y-45.503
N7490 X175.255 Y-45.603
N7495 X174.52 Y-45.689
N7500 X173.773 Y-45.762
N7505 X173.013 Y-45.822
N7510 X172.241 Y-45.869
N7515 X171.456 Y-45.902
N7520 X170.659 Y-45.922
N7525 X169.849 Y-45.929
N7530 X169.035 Y-45.922
N7535 X168.234 Y-45.902
N7540 X167.446 Y-45.868
N7545 X166.67 Y-45.821
N7550 X165.907 Y-45.76
N7555 X165.157 Y-45.686
N7560 X164.42 Y-45.598
N7565 X163.696 Y-45.497
N7570 X162.984 Y-45.382
N7575 X162.285 Y-45.255
N7580 X161.599 Y-45.113
N7585 X160.925 Y-44.958
N7590 X160.264 Y-44.789
N7595 X159.616 Y-44.607
N7600 X158.981 Y-44.412
N7605 X158.359 Y-44.203
N7610 X157.749 Y-43.981
N7615 X157.152 Y-43.745
N7620 X156.568 Y-43.495
N7625 X155.997 Y-43.232
N7630 X155.438 Y-42.956
N7635 X154.892 Y-42.666
N7640 X154.359 Y-42.363
N7645 X153.838 Y-42.046
N7650 X153.331 Y-41.716
N7655 X152.836 Y-41.372
N7660 X152.354 Y-41.015
N7665 X151.884 Y-40.644
N7670 X151.428 Y-40.26
N7675 X150.984 Y-39.863
N7680 X150.553 Y-39.451
N7685 X150.134 Y-39.027
N7690 X149.729 Y-38.591
N7695 X149.336 Y-38.145
N7700 X148.956 Y-37.69
N7705 X148.589 Y-37.225
N7710 X148.235 Y-36.751
N7715 X147.894 Y-36.268
N7720 X147.565 Y-35.775
N7725 X147.25 Y-35.272
N7730 X146.947 Y-34.76
N7735 X146.658 Y-34.239
N7740 X146.381 Y-33.708
N7745 X146.117 Y-33.167
N7750 X145.866 Y-32.617
N7755 X145.628 Y-32.058
N7760 X145.402 Y-31.489
N7765 X145.19 Y-30.91
N7770 X144.99 Y-30.323
N7775 X144.804 Y-29.725
N7780 X144.63 Y-29.118
N7785 X144.469 Y-28.502
N7790 X144.321 Y-27.876
N7795 X144.186 Y-27.24
N7800 X144.063 Y-26.596
N7805 X143.954 Y-25.941
N7810 X143.857 Y-25.277
N7815 X143.774 Y-24.604
N7820 X143.703 Y-23.921
N7825 X143.645 Y-23.229
N7830 X143.6 Y-22.527
N7835 X158.378 Y-19.734
N7840 X158.43 Y-20.471
N7845 X158.504 Y-21.187
N7850 X158.599 Y-21.881
N7855 X158.714 Y-22.555
N7860 X158.851 Y-23.207
N7865 X159.009 Y-23.838
N7870 X159.188 Y-24.449
N7875 X159.387 Y-25.038
N7880 X159.608 Y-25.607
N7885 X159.85 Y-26.154
N7890 X160.113 Y-26.68
N7895 X160.397 Y-27.185
N7900 X160.702 Y-27.67
N7905 X161.028 Y-28.133
N7910 X161.378 Y-28.571
N7915 X161.755 Y-28.981
N7920 X162.159 Y-29.363
N7925 X162.589 Y-29.717
N7930 X163.047 Y-30.042
N7935 X163.531 Y-30.339
N7940 X164.042 Y-30.608
N7945 X164.58 Y-30.848
N7950 X165.144 Y-31.061
N7955 X165.736 Y-31.245
N7960 X166.354 Y-31.4
N7965 X166.999 Y-31.528
N7970 X167.671 Y-31.626
N7975 X168.37 Y-31.697
N7980 X169.096 Y-31.74
N7985 X169.849 Y-31.754
N7990 X170.601 Y-31.74
N7995 X171.327 Y-31.697
N8000 X172.026 Y-31.626
N8005 X172.698 Y-31.528
N8010 X173.343 Y-31.4
N8015 X173.961 Y-31.245
N8020 X174.553 Y-31.061
N8025 X175.118 Y-30.848
N8030 X175.656 Y-30.608
N8035 X176.167 Y-30.339
N8040 X176.651 Y-30.042
N8045 X177.108 Y-29.717
N8050 X177.539 Y-29.363
N8055 X177.942 Y-28.981
N8060 X178.319 Y-28.571
N8065 X178.669 Y-28.133
N8070 X178.995 Y-27.67
N8075 X179.3 Y-27.185
N8080 X179.584 Y-26.68
N8085 X179.847 Y-26.154
N8090 X180.089 Y-25.607
N8095 X180.31 Y-25.038
N8100 X180.51 Y-24.449
N8105 X180.689 Y-23.838
N8110 X180.846 Y-23.207
N8115 X180.983 Y-22.555
N8120 X181.099 Y-21.881
N8125 X181.193 Y-21.187
N8130 X181.267 Y-20.471
N8135 X181.32 Y-19.734
N8140 X181.351 Y-18.977
N8145 X181.362 Y-18.198
N8150 Y18.384
N8155 X181.351 Y19.17
N8160 X181.32 Y19.934
N8165 X181.267 Y20.677
N8170 X181.193 Y21.397
N8175 X181.099 Y22.097
N8180 X180.983 Y22.774
N8185 X180.846 Y23.429
N8190 X180.689 Y24.063
N8195 X180.51 Y24.675
N8200 X180.31 Y25.265
N8205 X180.089 Y25.834
N8210 X179.847 Y26.38
N8215 X179.584 Y26.905
N8220 X179.3 Y27.408
N8225 X178.995 Y27.89
N8230 X178.669 Y28.349
N8235 X178.319 Y28.784
N8240 X177.942 Y29.191
N8245 X177.539 Y29.569
N8250 X177.108 Y29.92
N8255 X176.651 Y30.243
N8260 X176.167 Y30.537
N8265 X175.656 Y30.804
N8270 X175.118 Y31.042
N8275 X174.553 Y31.252
N8280 X173.961 Y31.435
N8285 X173.343 Y31.589
N8290 X172.698 Y31.715
N8295 X172.026 Y31.813
N8300 X171.327 Y31.883
N8305 X170.601 Y31.926
N8310 X169.849 Y31.94
N8315 X169.103 Y31.926
N8320 X168.384 Y31.883
N8325 X167.691 Y31.813
N8330 X167.025 Y31.715
N8335 X166.384 Y31.589
N8340 X165.769 Y31.435
N8345 X165.181 Y31.252
N8350 X164.618 Y31.042
N8355 X164.082 Y30.804
N8360 X163.572 Y30.537
N8365 X163.088 Y30.243
N8370 X162.63 Y29.92
N8375 X162.198 Y29.569
N8380 X161.792 Y29.191
N8385 X161.413 Y28.784
N8390 X161.059 Y28.349
N8395 X160.729 Y27.89
N8400 X160.421 Y27.408
N8405 X160.134 Y26.905
N8410 X159.868 Y26.38
N8415 X159.623 Y25.834
N8420 X159.399 Y25.265
N8425 X159.197 Y24.675
N8430 X159.016 Y24.063
N8435 X158.857 Y23.429
N8440 X158.719 Y22.774
N8445 X158.602 Y22.097
N8450 X158.506 Y21.397
N8455 X158.431 Y20.677
N8460 X158.378 Y19.934
N8465 X158.346 Y19.17
N8470 X158.336 Y18.384
N8475 Y-18.198
N8480 X158.346 Y-18.977
N8485 X158.378 Y-19.734
N8490 X211.011 Y17.579
N8495 Y45
N8500 X261.21
N8505 Y33.735
N8510 X239.484 Y-45
N8515 X223.576
N8520 X244.993 Y30.825
N8525 X225.805
N8530 Y17.579
N8535 X211.011
N8540 Z1
N8545 G17
N8550 M2