; GCODE Generated by cam.openbuilds.com on 2025-06-03 
G21 ; mm-mode
; Operation 0: Drill: Peck (Centered)
; Endmill Diameter: 6.35

G0 Z10; move to z-safe height
G0 F1000 X314.3823 Y260.9678

G0 Z0
G1 F300 Z0.0000; Direct Plunge
 G1 F300 X314.3823 Y260.9678 Z0.0000 S1000
G1 F300 X314.3823 Y260.9678 Z0.0000 S1000
G1 F300 Z0.0000; Direct Plunge
 G1 F300 X314.3823 Y260.9678 Z-1.0000 S1000
G1 F300 X314.3823 Y260.9678 Z0.0000 S1000
G1 F300 Z-1.0000; Direct Plunge
 G1 F300 X314.3823 Y260.9678 Z-2.0000 S1000
G1 F300 X314.3823 Y260.9678 Z0.0000 S1000
G1 F300 Z-2.0000; Direct Plunge
 G1 F300 X314.3823 Y260.9678 Z-3.0000 S1000
G1 F300 X314.3823 Y260.9678 Z0.0000 S1000
G1 F300 Z-3.0000; Direct Plunge
 G1 F300 X314.3823 Y260.9678 Z-4.0000 S1000
G1 F300 X314.3823 Y260.9678 Z0.0000 S1000
G1 F300 Z-4.0000; Direct Plunge
 G1 F300 X314.3823 Y260.9678 Z-5.0000 S1000
G1 F300 X314.3823 Y260.9678 Z0.0000 S1000
G1 F300 Z-5.0000; Direct Plunge
 G1 F300 X314.3823 Y260.9678 Z-6.0000 S1000
G1 F300 X314.3823 Y260.9678 Z0.0000 S1000

G0 Z10; move to z-safe height
G0 X178.0244 Y323.0507

G0 Z0
G1 F300 Z0.0000; Direct Plunge
 G1 F300 X178.0244 Y323.0507 Z0.0000 S1000
G1 F300 X178.0244 Y323.0507 Z0.0000 S1000
G1 F300 Z0.0000; Direct Plunge
 G1 F300 X178.0244 Y323.0507 Z-1.0000 S1000
G1 F300 X178.0244 Y323.0507 Z0.0000 S1000
G1 F300 Z-1.0000; Direct Plunge
 G1 F300 X178.0244 Y323.0507 Z-2.0000 S1000
G1 F300 X178.0244 Y323.0507 Z0.0000 S1000
G1 F300 Z-2.0000; Direct Plunge
 G1 F300 X178.0244 Y323.0507 Z-3.0000 S1000
G1 F300 X178.0244 Y323.0507 Z0.0000 S1000
G1 F300 Z-3.0000; Direct Plunge
 G1 F300 X178.0244 Y323.0507 Z-4.0000 S1000
G1 F300 X178.0244 Y323.0507 Z0.0000 S1000
G1 F300 Z-4.0000; Direct Plunge
 G1 F300 X178.0244 Y323.0507 Z-5.0000 S1000
G1 F300 X178.0244 Y323.0507 Z0.0000 S1000
G1 F300 Z-5.0000; Direct Plunge
 G1 F300 X178.0244 Y323.0507 Z-6.0000 S1000
G1 F300 X178.0244 Y323.0507 Z0.0000 S1000

G0 Z10; move to z-safe height
G0 X179.2543 Y292.0894

G0 Z0
G1 F300 Z0.0000; Direct Plunge
 G1 F300 X179.2543 Y292.0894 Z0.0000 S1000
G1 F300 X179.2543 Y292.0894 Z0.0000 S1000
G1 F300 Z0.0000; Direct Plunge
 G1 F300 X179.2543 Y292.0894 Z-1.0000 S1000
G1 F300 X179.2543 Y292.0894 Z0.0000 S1000
G1 F300 Z-1.0000; Direct Plunge
 G1 F300 X179.2543 Y292.0894 Z-2.0000 S1000
G1 F300 X179.2543 Y292.0894 Z0.0000 S1000
G1 F300 Z-2.0000; Direct Plunge
 G1 F300 X179.2543 Y292.0894 Z-3.0000 S1000
G1 F300 X179.2543 Y292.0894 Z0.0000 S1000
G1 F300 Z-3.0000; Direct Plunge
 G1 F300 X179.2543 Y292.0894 Z-4.0000 S1000
G1 F300 X179.2543 Y292.0894 Z0.0000 S1000
G1 F300 Z-4.0000; Direct Plunge
 G1 F300 X179.2543 Y292.0894 Z-5.0000 S1000
G1 F300 X179.2543 Y292.0894 Z0.0000 S1000
G1 F300 Z-5.0000; Direct Plunge
 G1 F300 X179.2543 Y292.0894 Z-6.0000 S1000
G1 F300 X179.2543 Y292.0894 Z0.0000 S1000

G0 Z10; move to z-safe height
G0 X131.0211 Y306.9551

G0 Z0
G1 F300 Z0.0000; Direct Plunge
 G1 F300 X131.0211 Y306.9551 Z0.0000 S1000
G1 F300 X131.0211 Y306.9551 Z0.0000 S1000
G1 F300 Z0.0000; Direct Plunge
 G1 F300 X131.0211 Y306.9551 Z-1.0000 S1000
G1 F300 X131.0211 Y306.9551 Z0.0000 S1000
G1 F300 Z-1.0000; Direct Plunge
 G1 F300 X131.0211 Y306.9551 Z-2.0000 S1000
G1 F300 X131.0211 Y306.9551 Z0.0000 S1000
G1 F300 Z-2.0000; Direct Plunge
 G1 F300 X131.0211 Y306.9551 Z-3.0000 S1000
G1 F300 X131.0211 Y306.9551 Z0.0000 S1000
G1 F300 Z-3.0000; Direct Plunge
 G1 F300 X131.0211 Y306.9551 Z-4.0000 S1000
G1 F300 X131.0211 Y306.9551 Z0.0000 S1000
G1 F300 Z-4.0000; Direct Plunge
 G1 F300 X131.0211 Y306.9551 Z-5.0000 S1000
G1 F300 X131.0211 Y306.9551 Z0.0000 S1000
G1 F300 Z-5.0000; Direct Plunge
 G1 F300 X131.0211 Y306.9551 Z-6.0000 S1000
G1 F300 X131.0211 Y306.9551 Z0.0000 S1000

G0 Z10; move to z-safe height
G0 X509.6682 Y306.9551

G0 Z0
G1 F300 Z0.0000; Direct Plunge
 G1 F300 X509.6682 Y306.9551 Z0.0000 S1000
G1 F300 X509.6682 Y306.9551 Z0.0000 S1000
G1 F300 Z0.0000; Direct Plunge
 G1 F300 X509.6682 Y306.9551 Z-1.0000 S1000
G1 F300 X509.6682 Y306.9551 Z0.0000 S1000
G1 F300 Z-1.0000; Direct Plunge
 G1 F300 X509.6682 Y306.9551 Z-2.0000 S1000
G1 F300 X509.6682 Y306.9551 Z0.0000 S1000
G1 F300 Z-2.0000; Direct Plunge
 G1 F300 X509.6682 Y306.9551 Z-3.0000 S1000
G1 F300 X509.6682 Y306.9551 Z0.0000 S1000
G1 F300 Z-3.0000; Direct Plunge
 G1 F300 X509.6682 Y306.9551 Z-4.0000 S1000
G1 F300 X509.6682 Y306.9551 Z0.0000 S1000
G1 F300 Z-4.0000; Direct Plunge
 G1 F300 X509.6682 Y306.9551 Z-5.0000 S1000
G1 F300 X509.6682 Y306.9551 Z0.0000 S1000
G1 F300 Z-5.0000; Direct Plunge
 G1 F300 X509.6682 Y306.9551 Z-6.0000 S1000
G1 F300 X509.6682 Y306.9551 Z0.0000 S1000

G0 Z10; move to z-safe height
G0 X89.7928 Y306.9551

G0 Z0
G1 F300 Z0.0000; Direct Plunge
 G1 F300 X89.7928 Y306.9551 Z0.0000 S1000
G1 F300 X89.7928 Y306.9551 Z0.0000 S1000
G1 F300 Z0.0000; Direct Plunge
 G1 F300 X89.7928 Y306.9551 Z-1.0000 S1000
G1 F300 X89.7928 Y306.9551 Z0.0000 S1000
G1 F300 Z-1.0000; Direct Plunge
 G1 F300 X89.7928 Y306.9551 Z-2.0000 S1000
G1 F300 X89.7928 Y306.9551 Z0.0000 S1000
G1 F300 Z-2.0000; Direct Plunge
 G1 F300 X89.7928 Y306.9551 Z-3.0000 S1000
G1 F300 X89.7928 Y306.9551 Z0.0000 S1000
G1 F300 Z-3.0000; Direct Plunge
 G1 F300 X89.7928 Y306.9551 Z-4.0000 S1000
G1 F300 X89.7928 Y306.9551 Z0.0000 S1000
G1 F300 Z-4.0000; Direct Plunge
 G1 F300 X89.7928 Y306.9551 Z-5.0000 S1000
G1 F300 X89.7928 Y306.9551 Z0.0000 S1000
G1 F300 Z-5.0000; Direct Plunge
 G1 F300 X89.7928 Y306.9551 Z-6.0000 S1000
G1 F300 X89.7928 Y306.9551 Z0.0000 S1000

G0 Z10; move to z-safe height
G0 X447.6387 Y307.0086

G0 Z0
G1 F300 Z0.0000; Direct Plunge
 G1 F300 X447.6387 Y307.0086 Z0.0000 S1000
G1 F300 X447.6387 Y307.0086 Z0.0000 S1000
G1 F300 Z0.0000; Direct Plunge
 G1 F300 X447.6387 Y307.0086 Z-1.0000 S1000
G1 F300 X447.6387 Y307.0086 Z0.0000 S1000
G1 F300 Z-1.0000; Direct Plunge
 G1 F300 X447.6387 Y307.0086 Z-2.0000 S1000
G1 F300 X447.6387 Y307.0086 Z0.0000 S1000
G1 F300 Z-2.0000; Direct Plunge
 G1 F300 X447.6387 Y307.0086 Z-3.0000 S1000
G1 F300 X447.6387 Y307.0086 Z0.0000 S1000
G1 F300 Z-3.0000; Direct Plunge
 G1 F300 X447.6387 Y307.0086 Z-4.0000 S1000
G1 F300 X447.6387 Y307.0086 Z0.0000 S1000
G1 F300 Z-4.0000; Direct Plunge
 G1 F300 X447.6387 Y307.0086 Z-5.0000 S1000
G1 F300 X447.6387 Y307.0086 Z0.0000 S1000
G1 F300 Z-5.0000; Direct Plunge
 G1 F300 X447.6387 Y307.0086 Z-6.0000 S1000
G1 F300 X447.6387 Y307.0086 Z0.0000 S1000

G0 Z10; move to z-safe height
G0 X381.0105 Y306.9551

G0 Z0
G1 F300 Z0.0000; Direct Plunge
 G1 F300 X381.0105 Y306.9551 Z0.0000 S1000
G1 F300 X381.0105 Y306.9551 Z0.0000 S1000
G1 F300 Z0.0000; Direct Plunge
 G1 F300 X381.0105 Y306.9551 Z-1.0000 S1000
G1 F300 X381.0105 Y306.9551 Z0.0000 S1000
G1 F300 Z-1.0000; Direct Plunge
 G1 F300 X381.0105 Y306.9551 Z-2.0000 S1000
G1 F300 X381.0105 Y306.9551 Z0.0000 S1000
G1 F300 Z-2.0000; Direct Plunge
 G1 F300 X381.0105 Y306.9551 Z-3.0000 S1000
G1 F300 X381.0105 Y306.9551 Z0.0000 S1000
G1 F300 Z-3.0000; Direct Plunge
 G1 F300 X381.0105 Y306.9551 Z-4.0000 S1000
G1 F300 X381.0105 Y306.9551 Z0.0000 S1000
G1 F300 Z-4.0000; Direct Plunge
 G1 F300 X381.0105 Y306.9551 Z-5.0000 S1000
G1 F300 X381.0105 Y306.9551 Z0.0000 S1000
G1 F300 Z-5.0000; Direct Plunge
 G1 F300 X381.0105 Y306.9551 Z-6.0000 S1000
G1 F300 X381.0105 Y306.9551 Z0.0000 S1000

G0 Z10; move to z-safe height
G0 X247.0055 Y307.0621

G0 Z0
G1 F300 Z0.0000; Direct Plunge
 G1 F300 X247.0055 Y307.0621 Z0.0000 S1000
G1 F300 X247.0055 Y307.0621 Z0.0000 S1000
G1 F300 Z0.0000; Direct Plunge
 G1 F300 X247.0055 Y307.0621 Z-1.0000 S1000
G1 F300 X247.0055 Y307.0621 Z0.0000 S1000
G1 F300 Z-1.0000; Direct Plunge
 G1 F300 X247.0055 Y307.0621 Z-2.0000 S1000
G1 F300 X247.0055 Y307.0621 Z0.0000 S1000
G1 F300 Z-2.0000; Direct Plunge
 G1 F300 X247.0055 Y307.0621 Z-3.0000 S1000
G1 F300 X247.0055 Y307.0621 Z0.0000 S1000
G1 F300 Z-3.0000; Direct Plunge
 G1 F300 X247.0055 Y307.0621 Z-4.0000 S1000
G1 F300 X247.0055 Y307.0621 Z0.0000 S1000
G1 F300 Z-4.0000; Direct Plunge
 G1 F300 X247.0055 Y307.0621 Z-5.0000 S1000
G1 F300 X247.0055 Y307.0621 Z0.0000 S1000
G1 F300 Z-5.0000; Direct Plunge
 G1 F300 X247.0055 Y307.0621 Z-6.0000 S1000
G1 F300 X247.0055 Y307.0621 Z0.0000 S1000

G0 Z10; move to z-safe height
G0 X179.2543 Y306.9551

G0 Z0
G1 F300 Z0.0000; Direct Plunge
 G1 F300 X179.2543 Y306.9551 Z0.0000 S1000
G1 F300 X179.2543 Y306.9551 Z0.0000 S1000
G1 F300 Z0.0000; Direct Plunge
 G1 F300 X179.2543 Y306.9551 Z-1.0000 S1000
G1 F300 X179.2543 Y306.9551 Z0.0000 S1000
G1 F300 Z-1.0000; Direct Plunge
 G1 F300 X179.2543 Y306.9551 Z-2.0000 S1000
G1 F300 X179.2543 Y306.9551 Z0.0000 S1000
G1 F300 Z-2.0000; Direct Plunge
 G1 F300 X179.2543 Y306.9551 Z-3.0000 S1000
G1 F300 X179.2543 Y306.9551 Z0.0000 S1000
G1 F300 Z-3.0000; Direct Plunge
 G1 F300 X179.2543 Y306.9551 Z-4.0000 S1000
G1 F300 X179.2543 Y306.9551 Z0.0000 S1000
G1 F300 Z-4.0000; Direct Plunge
 G1 F300 X179.2543 Y306.9551 Z-5.0000 S1000
G1 F300 X179.2543 Y306.9551 Z0.0000 S1000
G1 F300 Z-5.0000; Direct Plunge
 G1 F300 X179.2543 Y306.9551 Z-6.0000 S1000
G1 F300 X179.2543 Y306.9551 Z0.0000 S1000

G0 Z10; move to z-safe height
G0 X447.6387 Y307.0086

G0 Z0
G1 F300 Z0.0000; Direct Plunge
 G1 F300 X447.6387 Y307.0086 Z0.0000 S1000
G1 F300 X447.6387 Y307.0086 Z0.0000 S1000
G1 F300 Z0.0000; Direct Plunge
 G1 F300 X447.6387 Y307.0086 Z-1.0000 S1000
G1 F300 X447.6387 Y307.0086 Z0.0000 S1000
G1 F300 Z-1.0000; Direct Plunge
 G1 F300 X447.6387 Y307.0086 Z-2.0000 S1000
G1 F300 X447.6387 Y307.0086 Z0.0000 S1000
G1 F300 Z-2.0000; Direct Plunge
 G1 F300 X447.6387 Y307.0086 Z-3.0000 S1000
G1 F300 X447.6387 Y307.0086 Z0.0000 S1000
G1 F300 Z-3.0000; Direct Plunge
 G1 F300 X447.6387 Y307.0086 Z-4.0000 S1000
G1 F300 X447.6387 Y307.0086 Z0.0000 S1000
G1 F300 Z-4.0000; Direct Plunge
 G1 F300 X447.6387 Y307.0086 Z-5.0000 S1000
G1 F300 X447.6387 Y307.0086 Z0.0000 S1000
G1 F300 Z-5.0000; Direct Plunge
 G1 F300 X447.6387 Y307.0086 Z-6.0000 S1000
G1 F300 X447.6387 Y307.0086 Z0.0000 S1000

G0 Z10; move to z-safe height
G0 X247.0589 Y306.9551

G0 Z0
G1 F300 Z0.0000; Direct Plunge
 G1 F300 X247.0589 Y306.9551 Z0.0000 S1000
G1 F300 X247.0589 Y306.9551 Z0.0000 S1000
G1 F300 Z0.0000; Direct Plunge
 G1 F300 X247.0589 Y306.9551 Z-1.0000 S1000
G1 F300 X247.0589 Y306.9551 Z0.0000 S1000
G1 F300 Z-1.0000; Direct Plunge
 G1 F300 X247.0589 Y306.9551 Z-2.0000 S1000
G1 F300 X247.0589 Y306.9551 Z0.0000 S1000
G1 F300 Z-2.0000; Direct Plunge
 G1 F300 X247.0589 Y306.9551 Z-3.0000 S1000
G1 F300 X247.0589 Y306.9551 Z0.0000 S1000
G1 F300 Z-3.0000; Direct Plunge
 G1 F300 X247.0589 Y306.9551 Z-4.0000 S1000
G1 F300 X247.0589 Y306.9551 Z0.0000 S1000
G1 F300 Z-4.0000; Direct Plunge
 G1 F300 X247.0589 Y306.9551 Z-5.0000 S1000
G1 F300 X247.0589 Y306.9551 Z0.0000 S1000
G1 F300 Z-5.0000; Direct Plunge
 G1 F300 X247.0589 Y306.9551 Z-6.0000 S1000
G1 F300 X247.0589 Y306.9551 Z0.0000 S1000
; retracting back to z-safe
G0 Z10

